{"type":"FeatureCollection","features":[{"type":"Feature","properties":{"date":"2026-07-23","segment":1,"distance_km":57.812},"geometry":{"type":"LineString","coordinates":[[108.909215,34.242296],[108.910829,34.242616],[108.91467,34.242652],[108.91821,34.242595],[108.918787,34.240543],[108.918815,34.237168],[108.91721,34.233947],[108.915371,34.231099],[108.914974,34.230475],[108.914654,34.22994],[108.913468,34.228141],[108.912616,34.226813],[108.911195,34.22457],[108.910914,34.224138],[108.909972,34.222654],[108.908155,34.219928],[108.907076,34.218246],[108.903929,34.214553],[108.902639,34.213111],[108.900027,34.21024],[108.897746,34.207758],[108.897234,34.207191],[108.895556,34.205313],[108.893077,34.202623],[108.891204,34.200519],[108.89029,34.199305],[108.888077,34.19748],[108.888767,34.193911],[108.889834,34.191628],[108.88488,34.191162],[108.878674,34.191004],[108.871955,34.19084],[108.864294,34.190347],[108.855365,34.189138],[108.846048,34.187975],[108.837527,34.188232],[108.83043,34.190042],[108.825653,34.192839],[108.81921,34.192001],[108.815771,34.187747],[108.80972,34.182432],[108.801444,34.177973],[108.791583,34.175304],[108.781974,34.172857],[108.773596,34.16963],[108.765982,34.165623],[108.758479,34.16048],[108.7507,34.155329],[108.742038,34.151254],[108.732389,34.148349],[108.722205,34.14623],[108.712296,34.144211],[108.702322,34.141976],[108.693385,34.137729],[108.68727,34.132143],[108.682434,34.12519],[108.677608,34.117981],[108.672497,34.110464],[108.666849,34.104088],[108.65981,34.098496],[108.651181,34.093827],[108.641659,34.090537],[108.631894,34.088809],[108.621553,34.088286],[108.611062,34.087905],[108.601943,34.087445],[108.592857,34.085024],[108.585184,34.079999],[108.579055,34.073071],[108.572922,34.066299],[108.565865,34.061673],[108.559572,34.056505],[108.555069,34.050713],[108.551083,34.046552],[108.547305,34.044485],[108.548361,34.041544],[108.547642,34.039072],[108.544546,34.03846],[108.538108,34.040354],[108.531183,34.040828],[108.526243,34.041097],[108.525904,34.041099],[108.520648,34.040885],[108.514583,34.041087],[108.509499,34.042649],[108.503632,34.04506],[108.498536,34.048582],[108.493351,34.050831],[108.493027,34.054632],[108.493123,34.060291],[108.493218,34.065763],[108.492887,34.070068],[108.491827,34.074286],[108.490739,34.078232],[108.489806,34.081547],[108.488762,34.086239],[108.488952,34.091326],[108.489172,34.096453],[108.489379,34.100757],[108.489493,34.10266],[108.48958,34.104378],[108.489605,34.105391],[108.489633,34.106066],[108.489646,34.106972],[108.490537,34.107159],[108.490982,34.107161]]}},{"type":"Feature","properties":{"date":"2026-07-23","segment":2,"distance_km":92.214},"geometry":{"type":"LineString","coordinates":[[108.490969,34.107165],[108.491438,34.107335],[108.49146,34.107832],[108.492396,34.107989],[108.495608,34.108045],[108.500578,34.108119],[108.506157,34.108202],[108.511481,34.108286],[108.51504,34.108344],[108.515303,34.109777],[108.515319,34.112991],[108.515346,34.117612],[108.515366,34.121904],[108.515437,34.126438],[108.515479,34.131128],[108.51551,34.134151],[108.515526,34.138619],[108.515557,34.144031],[108.515575,34.146011],[108.515535,34.148724],[108.515458,34.153482],[108.515414,34.157958],[108.515385,34.160422],[108.51535,34.162184],[108.515325,34.163724],[108.515239,34.165529],[108.515112,34.168297],[108.514938,34.17143],[108.514762,34.174777],[108.514526,34.178199],[108.514406,34.180212],[108.514308,34.182289],[108.514134,34.184859],[108.513936,34.188199],[108.513745,34.191229],[108.513575,34.194461],[108.513359,34.198636],[108.513126,34.202803],[108.512937,34.206169],[108.512733,34.209206],[108.512586,34.211646],[108.512405,34.215052],[108.512184,34.218627],[108.511928,34.222752],[108.511734,34.226143],[108.511573,34.228949],[108.511404,34.23176],[108.511262,34.234479],[108.511053,34.237949],[108.510953,34.240903],[108.510938,34.241271],[108.51046,34.243204],[108.509999,34.243157],[108.50666,34.242999],[108.502514,34.242785],[108.499858,34.242796],[108.499734,34.246782],[108.499663,34.249786],[108.499574,34.25242],[108.499522,34.255946],[108.49943,34.259181],[108.499305,34.262791],[108.49919,34.26735],[108.499066,34.272078],[108.498882,34.274671],[108.500296,34.276709],[108.503578,34.278879],[108.50509,34.278056],[108.50592,34.27388],[108.510456,34.27535],[108.518908,34.277207],[108.527555,34.279569],[108.535737,34.281588],[108.542876,34.282203],[108.546083,34.286859],[108.545678,34.291996],[108.544912,34.299159],[108.543054,34.307171],[108.540183,34.31429],[108.538717,34.322607],[108.537152,34.33096],[108.534153,34.339153],[108.532763,34.347625],[108.534218,34.356343],[108.536431,34.364901],[108.53688,34.373561],[108.536765,34.382346],[108.538293,34.390965],[108.542794,34.399034],[108.549948,34.405747],[108.55803,34.411581],[108.564413,34.416929],[108.568737,34.42287],[108.572836,34.429681],[108.578374,34.437182],[108.584806,34.444281],[108.591118,34.451218],[108.59794,34.457885],[108.606635,34.463046],[108.615093,34.468313],[108.622814,34.47438],[108.631002,34.479246],[108.639516,34.483844],[108.648513,34.487713],[108.657909,34.490393],[108.666314,34.493404],[108.673871,34.496269],[108.684291,34.498905],[108.693754,34.502164],[108.703079,34.505886],[108.713292,34.508443],[108.723733,34.509533],[108.734295,34.510322],[108.744761,34.512235],[108.752751,34.516707],[108.760093,34.523189],[108.76757,34.528472],[108.7742,34.533614],[108.77925,34.539067],[108.786883,34.544556],[108.796524,34.54815],[108.80693,34.550474],[108.817496,34.552729],[108.827837,34.554299],[108.838663,34.554338],[108.84937,34.553246],[108.859746,34.5534],[108.870151,34.553383],[108.880862,34.55289],[108.891098,34.554357],[108.89915,34.55635],[108.907246,34.557252],[108.914337,34.556809],[108.918604,34.557417],[108.916223,34.561898],[108.912784,34.569073],[108.908336,34.576522],[108.905591,34.585005],[108.901367,34.59253],[108.898303,34.599515],[108.897627,34.605267],[108.90026,34.608407],[108.904825,34.608682],[108.908815,34.608873],[108.90923,34.608977],[108.91019,34.611629],[108.912595,34.611785],[108.915508,34.611994],[108.91824,34.612207],[108.922027,34.612507],[108.925051,34.61272],[108.925591,34.612771],[108.928926,34.613016],[108.93169,34.613222],[108.934318,34.613422],[108.937395,34.613704],[108.938287,34.613802],[108.9383,34.615764],[108.938267,34.614128],[108.937738,34.613997],[108.93576,34.614783],[108.933445,34.615742],[108.931478,34.616246],[108.930187,34.617258],[108.927924,34.61752],[108.928123,34.617303]]}},{"type":"Feature","properties":{"date":"2026-07-23","segment":3,"distance_km":170.436},"geometry":{"type":"LineString","coordinates":[[109.051694,34.558507],[109.059401,34.55695],[109.067287,34.556067],[109.074742,34.555293],[109.083246,34.554271],[109.093919,34.551673],[109.104056,34.548363],[109.114626,34.546011],[109.12535,34.545279],[109.13579,34.545812],[109.146331,34.545567],[109.156735,34.545093],[109.167389,34.545939],[109.177931,34.546927],[109.188214,34.546095],[109.197944,34.542996],[109.207529,34.538877],[109.216506,34.534465],[109.22423,34.528439],[109.233825,34.524589],[109.244243,34.522025],[109.252811,34.516662],[109.262414,34.512529],[109.272748,34.512173],[109.283778,34.513248],[109.295951,34.514311],[109.306595,34.514111],[109.316487,34.512677],[109.326025,34.509152],[109.334405,34.503829],[109.343577,34.499327],[109.351603,34.493739],[109.358427,34.487946],[109.363107,34.482232],[109.368902,34.482463],[109.376644,34.483455],[109.385819,34.483393],[109.393394,34.482778],[109.394928,34.481852],[109.396218,34.481808],[109.396033,34.481484],[109.39576,34.48133],[109.395392,34.481257],[109.395392,34.481715],[109.3963,34.481617],[109.398659,34.481744],[109.398905,34.482039],[109.399383,34.482423],[109.404552,34.482662],[109.411813,34.483174],[109.420068,34.484538],[109.430416,34.484776],[109.440221,34.483311],[109.450933,34.483302],[109.461172,34.48183],[109.470994,34.47857],[109.481025,34.475958],[109.49155,34.475537],[109.501644,34.477576],[109.512265,34.477211],[109.52117,34.481333],[109.527086,34.487516],[109.537409,34.489422],[109.547822,34.492629],[109.557842,34.49542],[109.568009,34.497776],[109.57839,34.498409],[109.588793,34.498415],[109.599342,34.500229],[109.60978,34.501847],[109.620306,34.501754],[109.63098,34.501164],[109.64051,34.50052],[109.650635,34.499117],[109.660619,34.497566],[109.671149,34.497506],[109.681685,34.498225],[109.692186,34.497737],[109.702806,34.496426],[109.712875,34.497238],[109.722905,34.499046],[109.73361,34.499907],[109.74422,34.500489],[109.754775,34.50113],[109.764897,34.502961],[109.774897,34.506704],[109.784799,34.510538],[109.795517,34.512819],[109.805733,34.51573],[109.814416,34.520586],[109.82423,34.523286],[109.83499,34.524617],[109.844546,34.528239],[109.854318,34.532735],[109.864877,34.534582],[109.875994,34.533976],[109.88691,34.532867],[109.897242,34.532437],[109.907785,34.533665],[109.91815,34.536756],[109.927863,34.540689],[109.938115,34.543233],[109.948753,34.543739],[109.959364,34.543747],[109.969405,34.54159],[109.979423,34.538532],[109.989903,34.53667],[109.999715,34.535953],[110.010645,34.535518],[110.021619,34.536115],[110.031953,34.53772],[110.042358,34.539427],[110.052796,34.539946],[110.063288,34.540442],[110.073874,34.542386],[110.08369,34.545446],[110.093276,34.548932],[110.102325,34.554075],[110.109148,34.559946],[110.115144,34.567741],[110.120512,34.575614],[110.126506,34.581233],[110.134085,34.585551],[110.141789,34.589187],[110.148296,34.593868],[110.153114,34.599599],[110.15776,34.605977],[110.164347,34.610462],[110.173112,34.610711],[110.181929,34.611671],[110.189979,34.612936],[110.198707,34.612849],[110.207616,34.611114],[110.216277,34.610231],[110.225354,34.611118],[110.234697,34.609859],[110.244202,34.610275],[110.252619,34.608137],[110.260139,34.605681],[110.26931,34.604971],[110.276954,34.606051],[110.285364,34.607333],[110.293826,34.606113],[110.302068,34.603853],[110.310193,34.603832],[110.319048,34.602605],[110.326463,34.599785],[110.32559,34.599179],[110.32455,34.602382],[110.324731,34.60569],[110.325151,34.610934],[110.325528,34.615591],[110.325726,34.618085],[110.325954,34.621682],[110.324545,34.625672],[110.325987,34.626511],[110.331686,34.62502],[110.33687,34.624581],[110.342805,34.624213],[110.349263,34.62333],[110.354208,34.621476],[110.359469,34.621115],[110.36485,34.621089],[110.368614,34.620883],[110.374177,34.620579],[110.379543,34.61932],[110.385586,34.616145],[110.392625,34.615402],[110.397296,34.615253],[110.401554,34.615116],[110.407421,34.616941],[110.41383,34.618426],[110.42057,34.618277],[110.426131,34.620635],[110.432282,34.622191],[110.438422,34.62467],[110.44241,34.627971],[110.446505,34.628826],[110.45234,34.628522],[110.45737,34.628201],[110.462784,34.627566],[110.468005,34.626981],[110.47339,34.626679],[110.478005,34.626623],[110.483908,34.627244],[110.489657,34.627868],[110.495299,34.627627],[110.50207,34.626752],[110.506994,34.626114],[110.511465,34.625603],[110.516864,34.625135],[110.521821,34.624712],[110.526798,34.624626],[110.532753,34.625514],[110.538006,34.624068],[110.543821,34.623383],[110.549584,34.622964],[110.555794,34.622696],[110.560553,34.620746],[110.566143,34.620413],[110.572117,34.621715],[110.578702,34.623233],[110.586269,34.623011],[110.59367,34.622807],[110.599336,34.622646],[110.604894,34.62259],[110.610429,34.624832],[110.613106,34.628552],[110.613471,34.633148],[110.613972,34.636753],[110.614996,34.639995],[110.617565,34.644741],[110.622631,34.648144],[110.627805,34.651549],[110.634057,34.65464],[110.639678,34.65774],[110.644704,34.660489],[110.651148,34.662188],[110.65747,34.664379],[110.662519,34.666146],[110.667651,34.667945],[110.671987,34.671212],[110.67318,34.67581],[110.673898,34.678542],[110.674917,34.682476],[110.67567,34.68531],[110.676372,34.687873],[110.677006,34.690419],[110.677723,34.693633],[110.677938,34.695681],[110.678164,34.69777],[110.678191,34.698921],[110.678297,34.701987],[110.678445,34.70576],[110.678572,34.708846],[110.678719,34.712784],[110.680746,34.715491],[110.687835,34.715367],[110.688376,34.716806],[110.689441,34.717435],[110.689705,34.718102],[110.689365,34.718108],[110.689009,34.718027],[110.68835,34.718219],[110.687779,34.718439],[110.68781,34.718782],[110.687963,34.719033],[110.687779,34.7193],[110.687765,34.719779],[110.68775,34.720247],[110.687667,34.720594],[110.687668,34.720895],[110.687721,34.721234],[110.687681,34.721542],[110.687676,34.721829],[110.687638,34.722179],[110.68765,34.722477],[110.687615,34.722846],[110.687584,34.723162],[110.687609,34.723562],[110.687529,34.723893]]}},{"type":"Feature","properties":{"date":"2026-07-23","segment":4,"distance_km":4.664},"geometry":{"type":"LineString","coordinates":[[110.687736,34.724164],[110.687483,34.724375],[110.687628,34.724716],[110.687138,34.724745],[110.687077,34.725034],[110.687175,34.725406],[110.687698,34.725478],[110.68806,34.725666],[110.688225,34.725188],[110.687836,34.724815],[110.687845,34.724545],[110.687971,34.724285],[110.688211,34.723957],[110.687865,34.723728],[110.687907,34.723288],[110.687908,34.722777],[110.687801,34.723122],[110.687392,34.723165],[110.687557,34.722843],[110.687322,34.722632],[110.687381,34.722331],[110.687588,34.722092],[110.687603,34.721785],[110.687633,34.721213],[110.687654,34.72084],[110.687651,34.720528],[110.687742,34.720019],[110.687737,34.719746],[110.687737,34.719438],[110.687881,34.718984],[110.687911,34.71869],[110.688141,34.718443],[110.688462,34.71822],[110.688847,34.718187],[110.689265,34.718113],[110.689671,34.718153],[110.689241,34.718103],[110.688085,34.716818],[110.687894,34.71466],[110.687645,34.709863],[110.687535,34.707803],[110.687433,34.706052],[110.687329,34.704206],[110.687223,34.702634],[110.687129,34.70041],[110.687044,34.698961],[110.686981,34.697927],[110.688112,34.697286],[110.689983,34.696836],[110.689967,34.696124],[110.689996,34.696405],[110.689914,34.696705],[110.68965,34.697214],[110.687628,34.697382],[110.688659,34.697194],[110.689416,34.696804],[110.689935,34.696703]]}},{"type":"Feature","properties":{"date":"2026-07-24","segment":5,"distance_km":1.189},"geometry":{"type":"LineString","coordinates":[[110.685283,34.692389],[110.684927,34.69247],[110.684826,34.692739],[110.684935,34.693014],[110.684993,34.693385],[110.684996,34.692977],[110.685056,34.693323],[110.684942,34.693664],[110.685059,34.693356],[110.684996,34.692977],[110.685338,34.693477],[110.685153,34.693157],[110.685181,34.69346],[110.685292,34.693797],[110.684962,34.693924],[110.685171,34.693544],[110.684956,34.693925],[110.685182,34.693541],[110.684248,34.693898],[110.684927,34.693928],[110.68453,34.693961],[110.684575,34.693377],[110.684742,34.693094],[110.684536,34.693392],[110.68477,34.693031],[110.685155,34.693089],[110.684852,34.692836],[110.68447,34.692563]]}},{"type":"Feature","properties":{"date":"2026-07-24","segment":6,"distance_km":174.309},"geometry":{"type":"LineString","coordinates":[[110.684968,34.692318],[110.685601,34.692269],[110.68521,34.692289],[110.685681,34.692537],[110.685601,34.692269],[110.685685,34.692663],[110.685641,34.692395],[110.685517,34.692711],[110.684741,34.692371],[110.683036,34.692487],[110.682056,34.692533],[110.679077,34.692702],[110.677446,34.692416],[110.676663,34.689428],[110.67584,34.686167],[110.675153,34.683473],[110.674224,34.679935],[110.673855,34.678688],[110.673406,34.676776],[110.677316,34.67636],[110.683097,34.676149],[110.68742,34.675984],[110.692815,34.675782],[110.69846,34.675572],[110.703699,34.675355],[110.708773,34.675619],[110.709152,34.680119],[110.709459,34.684687],[110.709784,34.688963],[110.712714,34.690622],[110.717881,34.690567],[110.723078,34.69048],[110.728574,34.690388],[110.733886,34.690297],[110.73938,34.690201],[110.74357,34.692273],[110.743835,34.696701],[110.744027,34.701364],[110.744259,34.705972],[110.745973,34.708804],[110.753196,34.709064],[110.758975,34.709217],[110.76567,34.709804],[110.771906,34.711976],[110.777755,34.714066],[110.783569,34.716144],[110.788775,34.718002],[110.79347,34.719679],[110.795024,34.720215],[110.797764,34.72111],[110.80378,34.72422],[110.809619,34.727654],[110.81538,34.731124],[110.821197,34.734617],[110.827016,34.738118],[110.832174,34.741207],[110.837468,34.742528],[110.842262,34.746975],[110.848396,34.749397],[110.855079,34.750323],[110.859596,34.751426],[110.860221,34.751408],[110.86111,34.75344],[110.861074,34.758144],[110.859716,34.761974],[110.857918,34.764367],[110.8586,34.768918],[110.859818,34.774517],[110.860859,34.779974],[110.861974,34.785456],[110.864378,34.791001],[110.867739,34.796149],[110.870249,34.801467],[110.856184,34.885444],[110.860433,34.890439],[110.865894,34.894323],[110.87123,34.898443],[110.878352,34.90001],[110.884514,34.903131],[110.890032,34.906697],[110.892861,34.91014],[110.888021,34.912635],[110.880903,34.916707],[110.874242,34.923127],[110.869706,34.929184],[110.866789,34.937231],[110.864006,34.945483],[110.862212,34.953995],[110.8625,34.96197],[110.862564,34.969794],[110.860855,34.977036],[110.858288,34.98476],[110.855749,34.992392],[110.852277,34.999404],[110.848462,35.004284],[110.84446,35.008914],[110.843599,35.012185],[110.850722,35.014285],[110.860668,35.015712],[110.870739,35.016484],[110.879845,35.017158],[110.886938,35.017038],[110.892867,35.014554],[110.89921,35.015815],[110.902528,35.021187],[110.904528,35.027877],[110.906685,35.034889],[110.910485,35.042998],[110.91601,35.050458],[110.923159,35.057092],[110.931727,35.062619],[110.940489,35.067277],[110.948135,35.072408],[110.954304,35.079698],[110.959267,35.087376],[110.963101,35.093282],[110.967177,35.098249],[110.973098,35.103144],[110.981147,35.108921],[110.987854,35.115604],[110.993185,35.123056],[110.999572,35.130362],[111.007221,35.136563],[111.015442,35.142478],[111.023313,35.148218],[111.030415,35.154607],[111.035915,35.161304],[111.040322,35.168343],[111.043889,35.17358],[111.046069,35.17483],[111.046782,35.174962],[111.047189,35.174903],[111.046817,35.174835],[111.046593,35.17528],[111.047004,35.176737],[111.051559,35.180217],[111.060299,35.184756],[111.068248,35.190756],[111.074085,35.197956],[111.079261,35.205679],[111.084563,35.213658],[111.090019,35.221265],[111.095224,35.228813],[111.099506,35.236925],[111.103325,35.245186],[111.107683,35.253284],[111.110394,35.26172],[111.113138,35.269854],[111.118388,35.277385],[111.12412,35.284742],[111.129474,35.292455],[111.136267,35.299235],[111.144067,35.305279],[111.150626,35.312376],[111.15796,35.318814],[111.164766,35.325517],[111.169864,35.33332],[111.17414,35.341308],[111.17676,35.347943],[111.179076,35.353382],[111.182453,35.358801],[111.188095,35.365236],[111.195144,35.371947],[111.204135,35.376605],[111.214813,35.379469],[111.224681,35.382277],[111.232363,35.386122],[111.2378,35.39027],[111.245499,35.396699],[111.254299,35.40324],[111.263743,35.407836],[111.272431,35.412616],[111.279489,35.41876],[111.284959,35.426899],[111.289046,35.434908],[111.29406,35.443013],[111.300635,35.449969],[111.306652,35.456768],[111.311844,35.464425],[111.316694,35.471961],[111.321446,35.479803],[111.323779,35.488275],[111.323163,35.49652],[111.321327,35.505203],[111.319165,35.514028],[111.315717,35.522316],[111.311852,35.530316],[111.309567,35.538964],[111.309401,35.547734],[111.309125,35.556326],[111.30304,35.563777],[111.293716,35.568147],[111.284659,35.572496],[111.277665,35.578138],[111.272964,35.585542],[111.270475,35.594054],[111.270426,35.602696],[111.271275,35.611764],[111.270848,35.620504],[111.268958,35.629041],[111.267927,35.637729],[111.268594,35.646295],[111.270062,35.65509],[111.269765,35.663709],[111.269226,35.671522],[111.271281,35.677407],[111.273441,35.68275],[111.274539,35.688003],[111.278431,35.691362],[111.286838,35.692555],[111.29584,35.693793],[111.305027,35.695846],[111.313361,35.698451],[111.322417,35.700685],[111.331865,35.700971],[111.340319,35.699985],[111.349359,35.700029],[111.357877,35.700449],[111.366936,35.699814],[111.375561,35.698398],[111.384197,35.698177],[111.392678,35.699246],[111.396153,35.698006],[111.3951,35.694507],[111.394613,35.689424],[111.39653,35.685073],[111.398795,35.68012],[111.397611,35.67739],[111.39293,35.674832],[111.388528,35.672347],[111.387884,35.668831],[111.387851,35.664819],[111.388699,35.663925],[111.389948,35.663921],[111.388688,35.663966],[111.388173,35.663955],[111.387822,35.662048],[111.387792,35.65833],[111.387783,35.654209],[111.38778,35.648816],[111.387814,35.643428],[111.387764,35.638473],[111.387765,35.636388],[111.38776,35.634364],[111.387734,35.630008],[111.386977,35.627539],[111.383459,35.627507],[111.380552,35.627478],[111.380129,35.627404],[111.380148,35.624659],[111.380114,35.623585],[111.379957,35.623343],[111.379832,35.62374],[111.379426,35.623708],[111.379822,35.623683]]}},{"type":"Feature","properties":{"date":"2026-07-24","segment":7,"distance_km":7.979},"geometry":{"type":"LineString","coordinates":[[111.37944,35.623582],[111.379843,35.62352],[111.379975,35.623134],[111.380177,35.621257],[111.380236,35.618937],[111.380962,35.618576],[111.383061,35.618976],[111.387596,35.619893],[111.387884,35.621772],[111.387888,35.622059],[111.387896,35.624445],[111.387898,35.625307],[111.387904,35.62721],[111.387908,35.628928],[111.387917,35.631583],[111.387927,35.635294],[111.387931,35.635988],[111.387925,35.640195],[111.387937,35.644513],[111.387942,35.649044],[111.387953,35.653839],[111.387995,35.657997],[111.387942,35.660447],[111.388215,35.663783],[111.388665,35.663854],[111.388483,35.664115],[111.388296,35.663876],[111.388741,35.663871],[111.391305,35.663994],[111.391726,35.663396],[111.394275,35.663297],[111.398261,35.663145],[111.400892,35.663043],[111.401276,35.663022],[111.402489,35.662838],[111.402435,35.661048],[111.40381,35.660318],[111.404259,35.660881]]}},{"type":"Feature","properties":{"date":"2026-07-24","segment":8,"distance_km":8.133},"geometry":{"type":"LineString","coordinates":[[111.387862,35.645577],[111.387857,35.641578],[111.387802,35.637716],[111.387814,35.635698],[111.387825,35.632606],[111.387773,35.628975],[111.38777,35.627727],[111.387783,35.625908],[111.387779,35.622811],[111.387788,35.622485],[111.38757,35.620003],[111.384259,35.619317],[111.381334,35.618755],[111.379277,35.618367],[111.375983,35.617733],[111.372101,35.61699],[111.368195,35.616245],[111.364303,35.615466],[111.362892,35.615196],[111.362515,35.614644],[111.362751,35.61205],[111.362816,35.61081],[111.362974,35.609442],[111.363187,35.606857],[111.363399,35.604484],[111.362351,35.602368],[111.35736,35.601502],[111.356272,35.601306],[111.351891,35.600637],[111.349933,35.600335],[111.349682,35.600557],[111.350011,35.600737],[111.350416,35.600807],[111.350134,35.601286],[111.349839,35.601441],[111.350163,35.601301],[111.349744,35.601408],[111.350087,35.601448],[111.349717,35.601445],[111.350329,35.601562]]}},{"type":"Feature","properties":{"date":"2026-07-24","segment":9,"distance_km":0.116},"geometry":{"type":"LineString","coordinates":[[111.350028,35.601889],[111.350128,35.601422],[111.34981,35.601929]]}},{"type":"Feature","properties":{"date":"2026-07-24","segment":10,"distance_km":82.1},"geometry":{"type":"LineString","coordinates":[[111.350128,35.601422],[111.350038,35.601855],[111.350428,35.601967],[111.35012,35.601854],[111.350643,35.602359],[111.351109,35.602519],[111.350982,35.602828],[111.350944,35.602374],[111.350833,35.602112],[111.350902,35.601783],[111.350861,35.601475],[111.35086,35.601005],[111.350325,35.600796],[111.349872,35.600862],[111.349849,35.600534],[111.350346,35.599979],[111.349872,35.600405],[111.35033,35.60024],[111.350367,35.599626],[111.350301,35.600193],[111.349754,35.600457],[111.350471,35.600295],[111.350378,35.599986],[111.34987,35.600363],[111.350363,35.600489],[111.349855,35.600378],[111.35017,35.600505],[111.349845,35.600375],[111.352683,35.60065],[111.356191,35.601758],[111.355432,35.604785],[111.354775,35.606388],[111.355101,35.608025],[111.355313,35.609337],[111.355411,35.609999],[111.353974,35.610046],[111.351153,35.609663],[111.346885,35.609061],[111.344106,35.608693],[111.340847,35.608286],[111.339718,35.608165],[111.334358,35.607784],[111.329663,35.607198],[111.324657,35.606148],[111.319147,35.604993],[111.314338,35.603987],[111.310135,35.603074],[111.305467,35.602061],[111.300929,35.601075],[111.296129,35.600156],[111.291406,35.600438],[111.290315,35.600631],[111.28591,35.601147],[111.285209,35.599195],[111.279395,35.599863],[111.275854,35.602956],[111.27453,35.605364],[111.272835,35.606949],[111.271238,35.610675],[111.271095,35.619133],[111.269346,35.627704],[111.268032,35.636487],[111.268462,35.645392],[111.269957,35.654236],[111.269908,35.662976],[111.269189,35.671207],[111.272133,35.679471],[111.274244,35.687878],[111.27431,35.696435],[111.276072,35.704576],[111.279869,35.712165],[111.283896,35.719352],[111.286323,35.726616],[111.287439,35.734009],[111.289247,35.742313],[111.293093,35.75008],[111.296192,35.758409],[111.297142,35.766245],[111.298636,35.77506],[111.301932,35.783793],[111.305692,35.792081],[111.310612,35.800294],[111.316729,35.807776],[111.32206,35.815501],[111.324595,35.824158],[111.326132,35.833393],[111.32977,35.841669],[111.3339,35.850073],[111.336397,35.858785],[111.339072,35.867347],[111.343305,35.875118],[111.348932,35.882742],[111.354303,35.890644],[111.3581,35.898964],[111.362414,35.907158],[111.368588,35.914583],[111.373535,35.922248],[111.376968,35.93055],[111.38028,35.938989],[111.384722,35.946499],[111.389642,35.954611],[111.392584,35.963243],[111.39348,35.972096],[111.395082,35.981044],[111.399509,35.988908],[111.404392,35.997239],[111.407162,36.005763],[111.410261,36.014134],[111.415184,36.022181],[111.420484,36.02998],[111.427388,36.036918],[111.433577,36.044448],[111.4375,36.052969],[111.44257,36.060642],[111.448278,36.068414],[111.449096,36.076579],[111.448379,36.082715],[111.449072,36.087737],[111.451786,36.086395],[111.451875,36.082497],[111.454426,36.079957],[111.458465,36.078371],[111.46338,36.076096],[111.468577,36.073302],[111.473035,36.070902],[111.47751,36.068501],[111.48195,36.066041],[111.484272,36.064821],[111.485031,36.06498],[111.486059,36.068606],[111.487187,36.073516],[111.488621,36.078977],[111.489972,36.08409],[111.491587,36.090151],[111.492714,36.094418],[111.493628,36.097401],[111.495188,36.098074],[111.498841,36.097202],[111.499672,36.09699],[111.500664,36.096755],[111.503925,36.095983],[111.505267,36.095679],[111.509145,36.094723],[111.51115,36.094229],[111.513388,36.093866],[111.516223,36.093454],[111.519399,36.092782],[111.522142,36.091379],[111.522776,36.091017],[111.522689,36.090482],[111.522226,36.089487],[111.52187,36.088729],[111.521235,36.087361],[111.522716,36.086595],[111.522508,36.086117],[111.522267,36.085661],[111.522109,36.085323],[111.522271,36.085564],[111.522602,36.086215],[111.522866,36.086602],[111.52388,36.086529],[111.525496,36.086641],[111.528021,36.086892],[111.530017,36.086906],[111.529549,36.085387],[111.52897,36.084273],[111.527707,36.081899],[111.526942,36.080766],[111.52531,36.081277],[111.523872,36.081743],[111.522253,36.08229],[111.521285,36.082666],[111.519876,36.083103],[111.518144,36.083667],[111.51778,36.083885],[111.517814,36.084243],[111.516334,36.084954]]}},{"type":"Feature","properties":{"date":"2026-07-24","segment":11,"distance_km":28.401},"geometry":{"type":"LineString","coordinates":[[111.517413,36.084922],[111.51803,36.084634],[111.517819,36.084173],[111.517571,36.083878],[111.516494,36.084192],[111.514947,36.08467],[111.513251,36.085211],[111.511197,36.085868],[111.509451,36.086472],[111.50964,36.088608],[111.510595,36.091166],[111.510933,36.092084],[111.511542,36.093912],[111.509749,36.094655],[111.505225,36.095757],[111.501491,36.096693],[111.5007,36.096893],[111.498737,36.097328],[111.495814,36.09802],[111.49545,36.098137],[111.494961,36.09825],[111.494274,36.098429],[111.494251,36.100035],[111.495208,36.103647],[111.495693,36.105341],[111.495871,36.106008],[111.495977,36.10665],[111.497313,36.11021],[111.49939,36.114165],[111.500813,36.116866],[111.503793,36.121008],[111.507521,36.125147],[111.511173,36.129207],[111.514888,36.133331],[111.518944,36.137451],[111.524846,36.140032],[111.53113,36.142285],[111.535875,36.144936],[111.541111,36.147879],[111.54604,36.150645],[111.548686,36.152129],[111.550766,36.153338],[111.555925,36.156237],[111.560565,36.158835],[111.565097,36.162538],[111.568391,36.167263],[111.571515,36.172712],[111.574758,36.177685],[111.577131,36.17993],[111.579277,36.181393],[111.585412,36.184197],[111.591862,36.187464],[111.595449,36.192379],[111.597138,36.198465],[111.599394,36.203658],[111.604479,36.207458],[111.611168,36.2104],[111.617424,36.213209],[111.622306,36.217712],[111.623577,36.223466],[111.621405,36.229309],[111.620623,36.235066],[111.624258,36.240167],[111.628994,36.244256],[111.633989,36.248563],[111.638464,36.252098],[111.642888,36.254521],[111.646404,36.254533],[111.649908,36.253721],[111.653459,36.252925],[111.657153,36.252083],[111.660362,36.251366],[111.661246,36.251679]]}},{"type":"Feature","properties":{"date":"2026-07-24","segment":12,"distance_km":0.237},"geometry":{"type":"LineString","coordinates":[[111.661385,36.252005],[111.661283,36.25239],[111.661177,36.251779],[111.660927,36.25138],[111.661619,36.251751]]}},{"type":"Feature","properties":{"date":"2026-07-25","segment":13,"distance_km":19.209},"geometry":{"type":"LineString","coordinates":[[111.66134,36.252187],[111.661124,36.2516],[111.661125,36.249957],[111.662376,36.248736],[111.665675,36.248567],[111.669517,36.247758],[111.671929,36.247034],[111.673469,36.24658],[111.676295,36.245757],[111.680392,36.244315],[111.684181,36.242836],[111.688273,36.241003],[111.692529,36.239092],[111.693885,36.238482],[111.694305,36.238467],[111.694814,36.2418],[111.695182,36.244569],[111.695382,36.246093],[111.695523,36.247128],[111.695869,36.250051],[111.69611,36.251938],[111.696708,36.256418],[111.697063,36.258796],[111.697368,36.261381],[111.69799,36.265566],[111.700475,36.266018],[111.705025,36.264353],[111.710578,36.264523],[111.715898,36.264742],[111.721496,36.264968],[111.726754,36.265183],[111.732345,36.265408],[111.737853,36.265631],[111.743392,36.265848],[111.749925,36.266111],[111.756086,36.266601],[111.759945,36.268892],[111.762827,36.272709],[111.76576,36.276707],[111.769866,36.27993],[111.77497,36.2813],[111.779957,36.282551],[111.785325,36.284027],[111.789194,36.28656],[111.792322,36.289517],[111.793821,36.289904],[111.795247,36.29125],[111.796427,36.292798],[111.798113,36.294339],[111.798188,36.2948],[111.79886,36.294448],[111.79923,36.2944],[111.799682,36.294723],[111.799862,36.295145],[111.799941,36.295573],[111.799908,36.296069],[111.800004,36.296495],[111.800438,36.297341],[111.80068,36.297857],[111.800602,36.298288],[111.801343,36.299789],[111.801843,36.299475],[111.802069,36.297843],[111.802627,36.297876],[111.804123,36.299455],[111.804688,36.301601],[111.805153,36.301097],[111.806472,36.301029],[111.80661,36.301444],[111.806512,36.301138],[111.80672,36.301532],[111.806724,36.301893],[111.806522,36.30158],[111.806725,36.301914],[111.806884,36.302213],[111.806703,36.301873],[111.806958,36.302405],[111.806714,36.301881],[111.806723,36.302219],[111.807043,36.302343],[111.806736,36.30203]]}},{"type":"Feature","properties":{"date":"2026-07-25","segment":14,"distance_km":57.038},"geometry":{"type":"LineString","coordinates":[[111.806618,36.301215],[111.806337,36.3008],[111.805819,36.300885],[111.805461,36.301531],[111.805576,36.301878],[111.805697,36.302284],[111.805621,36.302556],[111.805319,36.302315],[111.804914,36.302477],[111.804499,36.302616],[111.804173,36.302689],[111.803805,36.302709],[111.803333,36.302607],[111.803024,36.302475],[111.80258,36.302464],[111.802408,36.302719],[111.801364,36.301966],[111.802015,36.302832],[111.801914,36.303184],[111.801784,36.303504],[111.801594,36.303754],[111.801122,36.3042],[111.801594,36.303754],[111.801792,36.303525],[111.801594,36.303754],[111.801889,36.304044],[111.801554,36.304217],[111.801626,36.303912],[111.801915,36.303704],[111.802111,36.303952],[111.8023,36.30359],[111.801631,36.303321],[111.802192,36.303501],[111.802367,36.303779],[111.801592,36.304333],[111.801124,36.304213],[111.802107,36.304397],[111.802451,36.304207],[111.802703,36.304463],[111.802451,36.304207],[111.801764,36.303689],[111.802338,36.303716],[111.802221,36.30343],[111.802103,36.303165],[111.801709,36.302685],[111.801997,36.302932],[111.801634,36.302613],[111.801512,36.30223],[111.80137,36.301887],[111.80154,36.302376],[111.801509,36.301922],[111.801529,36.301642],[111.801497,36.301168],[111.801399,36.300678],[111.80133,36.300344],[111.801266,36.299751],[111.801105,36.299163],[111.800988,36.298884],[111.800811,36.298563],[111.800842,36.298194],[111.800698,36.297875],[111.800615,36.298192],[111.800206,36.296928],[111.800074,36.296468],[111.798801,36.300285],[111.799859,36.296199],[111.799826,36.295929],[111.799734,36.295589],[111.799343,36.295534],[111.798774,36.295755],[111.79826,36.295291],[111.798069,36.29489],[111.796459,36.29374],[111.796112,36.293291],[111.796156,36.292822],[111.794671,36.290502],[111.793873,36.290632],[111.79327,36.29069],[111.790057,36.287639],[111.786072,36.284535],[111.780712,36.282899],[111.775638,36.281622],[111.77046,36.280297],[111.766169,36.277534],[111.763546,36.274002],[111.760984,36.270509],[111.757137,36.267116],[111.75194,36.266328],[111.747033,36.266135],[111.742007,36.265934],[111.736513,36.265718],[111.730893,36.265493],[111.725002,36.265375],[111.725524,36.266619],[111.728759,36.266299],[111.728969,36.260562],[111.728025,36.25302],[111.724812,36.245492],[111.722209,36.237278],[111.720501,36.228797],[111.715581,36.221406],[111.711065,36.214071],[111.707039,36.205951],[111.703281,36.19829],[111.700176,36.194346],[111.694029,36.197265],[111.68363,36.200048],[111.672815,36.199736],[111.662037,36.20016],[111.651875,36.202968],[111.641863,36.20629],[111.632923,36.210478],[111.62392,36.215303],[111.614831,36.220063],[111.605207,36.224254],[111.595659,36.228356],[111.586163,36.23157],[111.576334,36.234453],[111.566807,36.237976],[111.55763,36.242518],[111.548586,36.247007],[111.540503,36.250345],[111.536828,36.246223],[111.530361,36.240082],[111.523456,36.233101],[111.516212,36.227621],[111.510485,36.220293],[111.506939,36.21218],[111.50232,36.205007],[111.497904,36.198754],[111.494762,36.195875],[111.494956,36.198062],[111.493109,36.199556],[111.488764,36.20153],[111.484834,36.203381],[111.48035,36.20518],[111.478663,36.207147],[111.479806,36.21137],[111.476188,36.213874],[111.471408,36.215542],[111.466194,36.215182],[111.463942,36.215007],[111.463468,36.214992],[111.461735,36.214871],[111.458702,36.216513],[111.456694,36.21885],[111.452188,36.219801],[111.447785,36.221541],[111.4432,36.222984],[111.439919,36.225783],[111.436317,36.22859],[111.440537,36.225069],[111.444805,36.221777],[111.450159,36.22097],[111.454707,36.218549],[111.45922,36.218279],[111.459503,36.214746],[111.463014,36.214854],[111.463441,36.214921],[111.466738,36.215193],[111.472224,36.215375],[111.477088,36.213432],[111.479499,36.210154],[111.478118,36.206507],[111.477727,36.206305],[111.477875,36.205988],[111.477477,36.206085],[111.477832,36.206194]]}},{"type":"Feature","properties":{"date":"2026-07-25","segment":15,"distance_km":56.313},"geometry":{"type":"LineString","coordinates":[[111.477977,36.20582],[111.47887,36.207832],[111.479809,36.211461],[111.477163,36.213507],[111.473596,36.215119],[111.472809,36.215295],[111.468848,36.215422],[111.46542,36.215157],[111.463802,36.21503],[111.461388,36.214853],[111.459017,36.217008],[111.456475,36.218808],[111.452237,36.219788],[111.447599,36.221536],[111.442908,36.223205],[111.439262,36.226306],[111.435104,36.229264],[111.430584,36.231439],[111.426279,36.234017],[111.422409,36.236583],[111.419358,36.237931],[111.416803,36.239522],[111.416936,36.244349],[111.413557,36.247447],[111.40962,36.250084],[111.41058,36.253878],[111.410255,36.257763],[111.415972,36.258459],[111.414738,36.260954],[111.409544,36.261433],[111.404549,36.263769],[111.398014,36.264861],[111.394881,36.267874],[111.390752,36.265069],[111.385974,36.263246],[111.381154,36.263703],[111.377033,36.26495],[111.372798,36.267319],[111.368205,36.269116],[111.364174,36.270983],[111.360269,36.273423],[111.35791,36.27681],[111.358775,36.280709],[111.356681,36.284729],[111.359485,36.289065],[111.355368,36.290013],[111.351097,36.290419],[111.348359,36.293131],[111.34612,36.296635],[111.343373,36.298648],[111.338894,36.295814],[111.333861,36.29561],[111.328781,36.299144],[111.32342,36.296361],[111.320399,36.291938],[111.316884,36.288863],[111.316488,36.284322],[111.31184,36.282733],[111.306791,36.285252],[111.302001,36.287376],[111.297001,36.288636],[111.291782,36.289312],[111.286465,36.288842],[111.28159,36.287947],[111.276862,36.286261],[111.271877,36.284969],[111.266533,36.284595],[111.262726,36.284572],[111.257576,36.285039],[111.252972,36.287768],[111.249589,36.291172],[111.246152,36.293499],[111.241933,36.296218],[111.238577,36.299656],[111.234617,36.30269],[111.232969,36.30678],[111.230413,36.310708],[111.227024,36.31362],[111.223054,36.316114],[111.221058,36.320275],[111.219296,36.324324],[111.216127,36.32764],[111.211312,36.329843],[111.208168,36.332851],[111.205174,36.336178],[111.202209,36.339471],[111.20036,36.343281],[111.202056,36.347391],[111.200121,36.351303],[111.198787,36.354555],[111.19871,36.357433],[111.196772,36.360829],[111.195942,36.364735],[111.192298,36.36726],[111.187186,36.368035],[111.181981,36.368905],[111.176734,36.367245],[111.172111,36.368148],[111.166776,36.369487],[111.16306,36.373045],[111.159313,36.376038],[111.154905,36.378065],[111.150688,36.375035],[111.146246,36.37424],[111.142621,36.378252],[111.137597,36.378691],[111.132449,36.37849],[111.131254,36.382224],[111.125995,36.381124],[111.122178,36.382054],[111.122701,36.386531],[111.120317,36.38986],[111.115468,36.391699],[111.111121,36.392296],[111.107028,36.395383],[111.107158,36.398514],[111.10704,36.399417],[111.104357,36.403437],[111.101816,36.405466],[111.100618,36.403603],[111.099747,36.401589],[111.09868,36.399147],[111.098299,36.397008],[111.099882,36.39396],[111.101496,36.391037],[111.102241,36.389051],[111.104025,36.388287],[111.105845,36.387336],[111.104946,36.385481],[111.105969,36.385868],[111.107021,36.387471],[111.106602,36.385718],[111.106814,36.384878],[111.107842,36.386858],[111.108755,36.388288],[111.107639,36.390378],[111.107315,36.39095],[111.106998,36.390672],[111.107366,36.391162],[111.106943,36.39067],[111.107325,36.391261],[111.106823,36.390628],[111.107063,36.390847],[111.106903,36.391613],[111.107339,36.390937],[111.106903,36.391613],[111.107406,36.39125],[111.107034,36.391568],[111.106903,36.391856],[111.106559,36.39206],[111.106332,36.392277]]}},{"type":"Feature","properties":{"date":"2026-07-25","segment":16,"distance_km":0.039},"geometry":{"type":"LineString","coordinates":[[111.106133,36.392586],[111.105758,36.392761]]}},{"type":"Feature","properties":{"date":"2026-07-25","segment":17,"distance_km":0.04},"geometry":{"type":"LineString","coordinates":[[111.106204,36.392285],[111.106559,36.39206]]}},{"type":"Feature","properties":{"date":"2026-07-25","segment":18,"distance_km":54.365},"geometry":{"type":"LineString","coordinates":[[111.106983,36.391673],[111.107285,36.391282],[111.107071,36.390981],[111.107432,36.391885],[111.106152,36.39342],[111.104819,36.39442],[111.105129,36.395595],[111.104192,36.396913],[111.102987,36.398971],[111.103348,36.401029],[111.103498,36.402776],[111.103153,36.403434],[111.102359,36.403145],[111.101789,36.40423],[111.101699,36.405133],[111.101208,36.406135],[111.09795,36.406944],[111.097409,36.406736],[111.096771,36.406544],[111.092361,36.406342],[111.087811,36.408862],[111.083394,36.410816],[111.079999,36.413026],[111.080017,36.415725],[111.079804,36.418403],[111.077406,36.419428],[111.074408,36.420062],[111.070375,36.420893],[111.066065,36.421795],[111.062988,36.422436],[111.060851,36.422914],[111.05773,36.423666],[111.056043,36.425895],[111.054481,36.428386],[111.050991,36.428523],[111.047185,36.428421],[111.043144,36.428902],[111.038639,36.430008],[111.034669,36.432468],[111.030034,36.434801],[111.025552,36.436877],[111.020964,36.439002],[111.015956,36.440805],[111.011736,36.442354],[111.009909,36.443168],[111.008814,36.446099],[111.007003,36.448402],[111.004879,36.449757],[111.002697,36.45119],[111.000053,36.45289],[110.995602,36.455137],[110.99067,36.455649],[110.98605,36.456724],[110.982891,36.460223],[110.979515,36.462227],[110.97465,36.462508],[110.970494,36.463971],[110.970725,36.467772],[110.968271,36.47013],[110.964266,36.471582],[110.959524,36.470734],[110.95647,36.473635],[110.953279,36.477523],[110.948705,36.47895],[110.945817,36.482441],[110.941543,36.48133],[110.937744,36.482824],[110.933286,36.48447],[110.928643,36.486345],[110.926061,36.490238],[110.922236,36.491319],[110.917233,36.491164],[110.912003,36.493208],[110.90651,36.492731],[110.904136,36.490194],[110.900053,36.490007],[110.895672,36.48923],[110.892878,36.491627],[110.889997,36.492036],[110.88761,36.493722],[110.886488,36.496426],[110.883087,36.498079],[110.879988,36.499408],[110.877141,36.500148],[110.872664,36.500446],[110.869177,36.497749],[110.865576,36.495976],[110.862347,36.49694],[110.86246,36.499434],[110.864976,36.502746],[110.868462,36.505349],[110.870814,36.507715],[110.868876,36.510623],[110.869676,36.513886],[110.868298,36.517462],[110.869563,36.521796],[110.870702,36.525711],[110.871182,36.529759],[110.870266,36.533911],[110.869056,36.537998],[110.866849,36.540738],[110.86949,36.542738],[110.87185,36.545957],[110.872424,36.54996],[110.871869,36.553591],[110.873406,36.556513],[110.877608,36.558054],[110.881472,36.560825],[110.884425,36.563843],[110.885118,36.566961],[110.888411,36.569542],[110.891388,36.572811],[110.89459,36.575848],[110.898631,36.578105],[110.901981,36.581352],[110.906042,36.583509],[110.910835,36.584763],[110.914751,36.58615],[110.916638,36.588968],[110.919796,36.592051],[110.923494,36.595847],[110.92465,36.600022],[110.923147,36.604491],[110.924313,36.60876],[110.926425,36.612991],[110.927797,36.616655],[110.928392,36.620708],[110.927821,36.625434],[110.929007,36.629666],[110.929653,36.633612],[110.929748,36.637885],[110.927303,36.641241],[110.925668,36.645189],[110.924632,36.649184],[110.92465,36.653193],[110.924672,36.657223],[110.924694,36.66051],[110.925151,36.66433],[110.92546,36.666526],[110.924752,36.667301],[110.921553,36.670432],[110.921632,36.67483],[110.923292,36.678922],[110.924381,36.681703],[110.924854,36.684446],[110.924879,36.687188],[110.924212,36.690005],[110.925045,36.692949],[110.927352,36.694158],[110.929794,36.693841],[110.931119,36.693721],[110.931093,36.694238],[110.931121,36.694569],[110.931267,36.695094],[110.931132,36.694774],[110.931162,36.694418],[110.931496,36.694357]]}},{"type":"Feature","properties":{"date":"2026-07-25","segment":19,"distance_km":0.089},"geometry":{"type":"LineString","coordinates":[[110.931655,36.69406],[110.931197,36.694281],[110.930763,36.694148]]}},{"type":"Feature","properties":{"date":"2026-07-26","segment":20,"distance_km":0.397},"geometry":{"type":"LineString","coordinates":[[110.931325,36.694348],[110.931114,36.69478],[110.931289,36.69515],[110.931428,36.695528],[110.931476,36.695898],[110.931505,36.696236],[110.93169,36.696603],[110.931724,36.696994],[110.931863,36.697416],[110.93185,36.697798]]}},{"type":"Feature","properties":{"date":"2026-07-26","segment":21,"distance_km":0.802},"geometry":{"type":"LineString","coordinates":[[110.931788,36.698387],[110.931638,36.6987],[110.93141,36.698924],[110.931157,36.699125],[110.930906,36.699356],[110.930498,36.699761],[110.930252,36.700067],[110.929877,36.700097],[110.929506,36.7001],[110.928763,36.699823],[110.928615,36.700173],[110.928319,36.700362],[110.928064,36.700831],[110.92836,36.701175],[110.928634,36.700922],[110.928191,36.700952],[110.927509,36.701042],[110.927168,36.701278],[110.926834,36.70149],[110.92646,36.701544]]}},{"type":"Feature","properties":{"date":"2026-07-26","segment":22,"distance_km":0.071},"geometry":{"type":"LineString","coordinates":[[110.926304,36.701834],[110.926073,36.701601],[110.926493,36.701621]]}},{"type":"Feature","properties":{"date":"2026-07-26","segment":23,"distance_km":152.2},"geometry":{"type":"LineString","coordinates":[[110.926025,36.701422],[110.926283,36.701171],[110.926691,36.701302],[110.927036,36.70125],[110.927395,36.701166],[110.927798,36.700814],[110.928007,36.70055],[110.92829,36.700321],[110.928637,36.699788],[110.92874,36.699495],[110.928798,36.699132],[110.92903,36.698904],[110.928678,36.699062],[110.929267,36.697921],[110.928424,36.699028],[110.928834,36.698896],[110.92844,36.69886],[110.928721,36.699126],[110.929004,36.698974],[110.929286,36.699229],[110.92998,36.699678],[110.930284,36.699978],[110.930593,36.699778],[110.930924,36.699365],[110.931241,36.699124],[110.931556,36.698667],[110.931823,36.698104],[110.931744,36.697629],[110.931772,36.697316],[110.931744,36.697034],[110.931671,36.696649],[110.931479,36.696377],[110.931445,36.695949],[110.931387,36.695293],[110.931188,36.69491],[110.9311,36.694564],[110.93134,36.694363],[110.931555,36.694121],[110.931342,36.694522],[110.931227,36.694927],[110.931445,36.695969],[110.931638,36.696875],[110.931814,36.697725],[110.931515,36.698743],[110.931166,36.699174],[110.932925,36.700324],[110.934528,36.702077],[110.93668,36.704632],[110.938688,36.706841],[110.940359,36.709126],[110.94155,36.711881],[110.942556,36.714664],[110.942754,36.716707],[110.942829,36.718972],[110.942062,36.721896],[110.944642,36.724302],[110.947119,36.726482],[110.948162,36.72953],[110.949419,36.733422],[110.949933,36.735192],[110.95054,36.736522],[110.95153,36.738905],[110.951734,36.740155],[110.954728,36.739677],[110.954764,36.742287],[110.955943,36.748866],[110.959092,36.755174],[110.959991,36.76181],[110.965459,36.767571],[110.973187,36.771456],[110.979113,36.776713],[110.983289,36.782869],[110.988682,36.787502],[110.994231,36.793383],[110.998185,36.800057],[111.001913,36.806293],[111.007368,36.811816],[111.014177,36.816755],[111.019689,36.822502],[111.026147,36.827543],[111.03191,36.833313],[111.039527,36.836801],[111.047067,36.839851],[111.05314,36.844241],[111.058425,36.849208],[111.065389,36.853197],[111.073316,36.85695],[111.080385,36.861588],[111.087277,36.866095],[111.095782,36.869663],[111.101753,36.875327],[111.107728,36.880699],[111.115597,36.883834],[111.122461,36.888669],[111.131066,36.891196],[111.13749,36.895583],[111.142953,36.901623],[111.150579,36.905526],[111.155944,36.910899],[111.158272,36.917745],[111.159552,36.924777],[111.156237,36.931622],[111.154179,36.938513],[111.153121,36.945737],[111.149198,36.9531],[111.144438,36.95903],[111.141013,36.964221],[111.140593,36.970482],[111.143047,36.977281],[111.147933,36.983565],[111.150177,36.989422],[111.150004,36.994842],[111.14984,37.000446],[111.151222,37.006683],[111.153154,37.012865],[111.153513,37.018905],[111.153098,37.024582],[111.151608,37.030046],[111.152068,37.036354],[111.1521,37.043142],[111.152116,37.049193],[111.154169,37.055138],[111.154272,37.06089],[111.155261,37.066502],[111.158731,37.072347],[111.157926,37.079526],[111.155842,37.086633],[111.157501,37.094226],[111.160516,37.101106],[111.166374,37.106525],[111.171866,37.112373],[111.177761,37.117936],[111.182711,37.124204],[111.185939,37.131122],[111.189647,37.137661],[111.194202,37.14397],[111.200269,37.149049],[111.208443,37.152451],[111.216727,37.156062],[111.223583,37.161679],[111.228711,37.167236],[111.229541,37.172958],[111.229215,37.176785],[111.229296,37.177872],[111.229811,37.17771],[111.229386,37.177833],[111.228515,37.180196],[111.226871,37.186184],[111.227199,37.193112],[111.231647,37.199176],[111.232851,37.206488],[111.234573,37.213371],[111.232947,37.219862],[111.230663,37.225214],[111.227169,37.230711],[111.223914,37.23602],[111.219566,37.240272],[111.214466,37.244883],[111.2102,37.249233],[111.210669,37.254983],[111.213575,37.260604],[111.216725,37.26623],[111.201684,37.296576],[111.19577,37.299626],[111.192458,37.305179],[111.189831,37.3118],[111.185864,37.318065],[111.178755,37.322477],[111.17275,37.328349],[111.167877,37.334424],[111.161611,37.339942],[111.157213,37.346235],[111.154615,37.35258],[111.147759,37.356253],[111.140515,37.357722],[111.127451,37.373378],[111.122704,37.378857],[111.118508,37.385447],[111.111621,37.388382],[111.107921,37.392981],[111.102255,37.397098],[111.097012,37.401516],[111.092545,37.407077],[111.086993,37.412875],[111.084452,37.420117],[111.080324,37.427382],[111.07746,37.43414],[111.080741,37.440297],[111.082383,37.447342],[111.078271,37.452901],[111.06086,37.468475],[111.057152,37.473992],[111.054112,37.479898],[111.04926,37.484052],[111.04659,37.48895],[111.047019,37.494644],[111.045149,37.500626],[111.043812,37.50645],[111.050986,37.514226],[111.057951,37.520626],[111.061625,37.525528],[111.064107,37.533961],[111.057447,37.550618],[111.053361,37.553345],[111.050996,37.556224],[111.04765,37.558415],[111.04639,37.560787],[111.044311,37.563238],[111.042514,37.566008],[111.039968,37.568816],[111.037988,37.571947],[111.038255,37.575242],[111.036234,37.577566],[111.034719,37.580218],[111.032143,37.582797],[111.030151,37.585767],[111.027639,37.588391],[111.024104,37.58925],[111.019883,37.589918],[111.015588,37.591401],[111.011239,37.592066],[111.007492,37.59376],[111.003356,37.594119],[110.999981,37.592233],[110.997382,37.589664],[110.996828,37.590634],[110.993369,37.591901],[110.989904,37.592198],[110.986099,37.59326],[110.984133,37.595636],[110.980943,37.598097],[110.975418,37.597715],[110.973857,37.601229],[110.972842,37.605074],[110.972114,37.603268],[110.970168,37.604006],[110.96741,37.607663],[110.964863,37.611527],[110.962409,37.615183],[110.961233,37.619119],[110.959697,37.621846],[110.955278,37.62081],[110.950828,37.62219],[110.948525,37.625058],[110.946887,37.626816],[110.9459,37.629214],[110.945488,37.631456],[110.944649,37.633596],[110.941363,37.634601],[110.938573,37.637142],[110.936485,37.639055],[110.933674,37.63784],[110.93065,37.639573],[110.926975,37.639277],[110.924128,37.640053],[110.921418,37.63717],[110.918193,37.636186],[110.914224,37.636733],[110.913422,37.636311],[110.912952,37.635822],[110.9121,37.635075],[110.909737,37.635318],[110.906623,37.637243],[110.906956,37.642258],[110.90338,37.645175],[110.901216,37.648857],[110.897154,37.650255],[110.896455,37.652823],[110.894803,37.655686],[110.89018,37.657276],[110.890427,37.660053],[110.888886,37.663302],[110.884502,37.664076],[110.880316,37.665281],[110.875974,37.666194],[110.872343,37.668256],[110.869119,37.669211],[110.866316,37.671063],[110.865578,37.669891],[110.864199,37.669757],[110.861695,37.67047],[110.858042,37.673651],[110.856055,37.676961],[110.854243,37.676484],[110.851418,37.67414],[110.848452,37.671683],[110.844973,37.67013],[110.843631,37.667549],[110.84097,37.66555],[110.837375,37.663398],[110.834387,37.662168],[110.83151,37.659995],[110.828326,37.65762],[110.824897,37.657504],[110.820995,37.65755],[110.819412,37.655007],[110.818849,37.651346],[110.817255,37.648491],[110.813731,37.646944],[110.809396,37.646183],[110.806255,37.645191],[110.804222,37.644009],[110.803204,37.643467],[110.801106,37.642339],[110.799278,37.641022],[110.797611,37.641501],[110.795246,37.639864],[110.79231,37.637425],[110.788819,37.638723],[110.786681,37.641158],[110.785544,37.642414],[110.785645,37.64292],[110.785513,37.643194]]}},{"type":"Feature","properties":{"date":"2026-07-26","segment":24,"distance_km":0.383},"geometry":{"type":"LineString","coordinates":[[110.785344,37.642805],[110.785459,37.643104],[110.7859,37.642968],[110.786102,37.642694],[110.785723,37.642455],[110.786156,37.642646],[110.786452,37.64246],[110.786797,37.642134],[110.787066,37.6419],[110.786837,37.641671],[110.786477,37.641497]]}},{"type":"Feature","properties":{"date":"2026-07-26","segment":25,"distance_km":0.608},"geometry":{"type":"LineString","coordinates":[[110.786533,37.641779],[110.786848,37.642192],[110.786609,37.642391],[110.786312,37.64267],[110.785815,37.643011],[110.785566,37.643327],[110.785365,37.643546],[110.785686,37.643824],[110.786138,37.643863],[110.785591,37.64372],[110.786054,37.643708],[110.786288,37.643912],[110.786089,37.643653],[110.785967,37.643372],[110.786055,37.643703],[110.786457,37.643447]]}},{"type":"Feature","properties":{"date":"2026-07-26","segment":26,"distance_km":30.089},"geometry":{"type":"LineString","coordinates":[[110.78592,37.643741],[110.785359,37.643632],[110.785499,37.643363],[110.785657,37.643099],[110.785398,37.6428],[110.785802,37.642059],[110.786563,37.640706],[110.785397,37.640602],[110.783812,37.642508],[110.781056,37.643419],[110.778466,37.642728],[110.774877,37.641886],[110.771325,37.641434],[110.767629,37.640092],[110.7639,37.63827],[110.760808,37.636168],[110.760676,37.633161],[110.762052,37.63004],[110.763752,37.62775],[110.765439,37.625564],[110.766526,37.62275],[110.767346,37.620693],[110.767758,37.618232],[110.768367,37.616284],[110.768165,37.613827],[110.768958,37.610689],[110.76936,37.607866],[110.769261,37.604662],[110.76989,37.601356],[110.770234,37.598335],[110.771002,37.595985],[110.771845,37.593501],[110.773626,37.590657],[110.775589,37.587403],[110.777568,37.584446],[110.779282,37.581675],[110.781041,37.578902],[110.783786,37.57669],[110.785466,37.573699],[110.787329,37.571021],[110.789368,37.567764],[110.791469,37.563557],[110.7916,37.559405],[110.790462,37.555381],[110.789667,37.551884],[110.78746,37.549286],[110.78474,37.546528],[110.782216,37.544399],[110.778963,37.541758],[110.776002,37.539924],[110.772333,37.538262],[110.769543,37.53806],[110.766583,37.540631],[110.768717,37.541698],[110.772596,37.543681],[110.776321,37.546403],[110.778296,37.549088],[110.779864,37.552178],[110.782001,37.555045],[110.7825,37.559391],[110.781462,37.56405],[110.77951,37.568215],[110.777543,37.572255],[110.775389,37.57732],[110.772732,37.581359],[110.769522,37.583153],[110.767175,37.584323],[110.769133,37.585653],[110.767358,37.588543],[110.765511,37.59198],[110.764758,37.595853],[110.763651,37.60014],[110.763234,37.604545],[110.762673,37.609149],[110.762119,37.61312],[110.761867,37.616955],[110.760738,37.621078],[110.758749,37.624599],[110.757908,37.627013],[110.756637,37.631139],[110.755876,37.635642],[110.757192,37.639964],[110.76006,37.643776],[110.76259,37.646548],[110.764154,37.646649],[110.768339,37.646326],[110.772519,37.6461],[110.774431,37.646558],[110.774746,37.646281]]}},{"type":"Feature","properties":{"date":"2026-07-26","segment":27,"distance_km":4.834},"geometry":{"type":"LineString","coordinates":[[110.77515,37.646248],[110.776102,37.646366],[110.775587,37.646452],[110.776163,37.646347],[110.775675,37.646303],[110.776166,37.646339],[110.782833,37.643148],[110.776611,37.646314],[110.785574,37.645607],[110.776869,37.646361],[110.776462,37.646377],[110.776094,37.646631],[110.775764,37.64674],[110.77621,37.646874],[110.784144,37.644945],[110.776661,37.646686],[110.776575,37.647129],[110.776686,37.64751]]}},{"type":"Feature","properties":{"date":"2026-07-26","segment":28,"distance_km":32.75},"geometry":{"type":"LineString","coordinates":[[110.776514,37.647094],[110.785183,37.645402],[110.776481,37.646824],[110.77584,37.646844],[110.775811,37.646478],[110.775402,37.646232],[110.775008,37.646239],[110.77455,37.646111],[110.774374,37.646493],[110.77455,37.646734],[110.774577,37.646226],[110.774512,37.646652],[110.774548,37.646196],[110.774409,37.646631],[110.77283,37.646027],[110.769255,37.646505],[110.765016,37.646739],[110.762329,37.647014],[110.760646,37.644299],[110.757538,37.640597],[110.755877,37.636229],[110.756409,37.631571],[110.757704,37.627663],[110.758255,37.624769],[110.760147,37.622076],[110.761518,37.618334],[110.761857,37.614541],[110.762434,37.610316],[110.762818,37.606134],[110.763392,37.601714],[110.764321,37.597476],[110.765213,37.593249],[110.766712,37.589447],[110.769178,37.58595],[110.767108,37.584047],[110.770631,37.583102],[110.773569,37.579957],[110.77597,37.575958],[110.77766,37.571482],[110.779944,37.567555],[110.781531,37.563495],[110.782395,37.559433],[110.781894,37.55498],[110.779101,37.551212],[110.776757,37.546929],[110.772915,37.543869],[110.768826,37.541796],[110.767162,37.53982],[110.770667,37.53708],[110.773911,37.53882],[110.778241,37.541205],[110.781672,37.543899],[110.785775,37.547393],[110.788942,37.550934],[110.790331,37.554632],[110.791172,37.55836],[110.791571,37.563236],[110.789257,37.567919],[110.786541,37.572324],[110.7843,37.575792],[110.780754,37.5792],[110.779385,37.581669],[110.777026,37.585247],[110.774567,37.589321],[110.771904,37.5934],[110.770337,37.597816],[110.769706,37.60208],[110.769522,37.605806],[110.769296,37.608536],[110.768688,37.611662],[110.767824,37.61527],[110.768587,37.617899],[110.768849,37.621364],[110.772728,37.622407],[110.776862,37.623241],[110.781513,37.623352],[110.787071,37.622961],[110.794944,37.623267],[110.798133,37.624348],[110.798384,37.629241],[110.800157,37.632533],[110.802554,37.635684],[110.807185,37.637774],[110.80728,37.640215],[110.80503,37.64255],[110.804526,37.643346],[110.804201,37.643937],[110.803206,37.643508]]}},{"type":"Feature","properties":{"date":"2026-07-26","segment":29,"distance_km":0.038},"geometry":{"type":"LineString","coordinates":[[110.802985,37.643718],[110.803354,37.643546]]}}]}
